STARLINK-4320           
1 53059U 22077S   25333.10351309  .00000522  00000+0  45219-4 0  9991
2 53059  97.6022 151.7457 0003970  35.6487 324.5002 15.01260808185823
STARLINK-4305           
1 53060U 22077T   25332.97550527  .00005135  00000+0  40371-3 0  9998
2 53060  97.6025 151.6216 0003060  64.0864 296.0675 15.01286538185800
STARLINK-4308           
1 53061U 22077U   25333.10141800  .00000199  00000+0  20019-4 0  9998
2 53061  97.6021 151.7434 0003060  50.0068 310.1425 15.01260123185826
STARLINK-4311           
1 53062U 22077V   25332.97182062  .00000138  00000+0  15264-4 0  9997
2 53062  97.6020 151.6173 0003904  53.9582 306.2003 15.01257227185802
STARLINK-4307           
1 53063U 22077W   25333.07781495  .00000081  00000+0  98405-5 0  9991
2 53063  97.6016 151.9887 0001891  76.4187 283.7250 15.05645991 57429
STARLINK-4313           
1 53064U 22077X   25332.49077000 -.00000547  00000+0 -33731-4 0  9996
2 53064  97.6031 151.4727 0001877  86.4419 273.7023 15.05640942185754
STARLINK-4312           
1 53065U 22077Y   25333.09771083  .00000292  00000+0  27264-4 0  9995
2 53065  97.6013 151.7360 0002392  27.8237 332.3115 15.01256909185825
STARLINK-4309           
1 53066U 22077Z   25333.16275693  .00004429  00000+0  34905-3 0  9995
2 53066  97.6004 151.8062 0001844  54.4159 305.7237 15.01270477185832
STARLINK-4325           
1 53068U 22077AB  25333.01689797 -.00000032  00000+0  19605-5 0  9994
2 53068  97.6013 151.9868 0001785  84.8612 275.2819 15.05645971185830
STARLINK-4323           
1 53069U 22077AC  25333.09029742  .00000663  00000+0  56112-4 0  9993
2 53069  97.6031 151.7234 0001076  82.3870 277.7476 15.01267264185824
STARLINK-4342           
1 53070U 22077AD  25332.97813855  .00000463  00000+0  36287-4 0  9996
2 53070  97.6025 152.0360 0001882  89.9756 270.1686 15.05647821185830
STARLINK-4328           
1 53071U 22077AE  25332.97537036  .00000551  00000+0  42389-4 0  9999
2 53071  97.6031 152.0228 0001780  86.1946 273.9484 15.05644274185834
STARLINK-4344           
1 53072U 22077AF  25333.09445295  .00003546  00000+0  24981-3 0  9993
2 53072  97.6027 152.0311 0002399  95.5614 264.5886 15.05652134185843
STARLINK-4346           
1 53073U 22077AG  25333.04982924  .00015551  00000+0  80945-3 0  9995
2 53073  97.6375 155.1075 0007165 245.2930 114.7557 15.16096852186025
STARLINK-4310           
1 53074U 22077AH  25333.09166117  .00000171  00000+0  16086-4 0  9997
2 53074  97.6019 152.0276 0001924  85.0622 275.0825 15.05643958185846
STARLINK-4348           
1 53075U 22077AJ  25333.01995347 -.00000208  00000+0 -11664-4 0  9995
2 53075  97.6013 151.6404 0001701  88.5533 271.5886 15.01260821185816
STARLINK-4347           
1 53076U 22077AK  25333.01834176  .00000605  00000+0  51658-4 0  9994
2 53076  97.6009 151.6539 0001516  87.6914 272.4484 15.01262712185813
