[{"OBJECT_NAME":"STARLINK-4320","OBJECT_ID":"2022-077S","EPOCH":"2025-11-29T02:29:03.530976","MEAN_MOTION":15.01260808,"ECCENTRICITY":0.000397,"INCLINATION":97.6022,"RA_OF_ASC_NODE":151.7457,"ARG_OF_PERICENTER":35.6487,"MEAN_ANOMALY":324.5002,"EPHEMERIS_TYPE":0,"CLASSIFICATION_TYPE":"U","NORAD_CAT_ID":53059,"ELEMENT_SET_NO":999,"REV_AT_EPOCH":18582,"BSTAR":4.5219e-5,"MEAN_MOTION_DOT":5.22e-6,"MEAN_MOTION_DDOT":0},{"OBJECT_NAME":"STARLINK-4305","OBJECT_ID":"2022-077T","EPOCH":"2025-11-28T23:24:43.655328","MEAN_MOTION":15.01286538,"ECCENTRICITY":0.000306,"INCLINATION":97.6025,"RA_OF_ASC_NODE":151.6216,"ARG_OF_PERICENTER":64.0864,"MEAN_ANOMALY":296.0675,"EPHEMERIS_TYPE":0,"CLASSIFICATION_TYPE":"U","NORAD_CAT_ID":53060,"ELEMENT_SET_NO":999,"REV_AT_EPOCH":18580,"BSTAR":0.00040371,"MEAN_MOTION_DOT":5.135e-5,"MEAN_MOTION_DDOT":0},{"OBJECT_NAME":"STARLINK-4308","OBJECT_ID":"2022-077U","EPOCH":"2025-11-29T02:26:02.515200","MEAN_MOTION":15.01260123,"ECCENTRICITY":0.000306,"INCLINATION":97.6021,"RA_OF_ASC_NODE":151.7434,"ARG_OF_PERICENTER":50.0068,"MEAN_ANOMALY":310.1425,"EPHEMERIS_TYPE":0,"CLASSIFICATION_TYPE":"U","NORAD_CAT_ID":53061,"ELEMENT_SET_NO":999,"REV_AT_EPOCH":18582,"BSTAR":2.0019e-5,"MEAN_MOTION_DOT":1.99e-6,"MEAN_MOTION_DDOT":0},{"OBJECT_NAME":"STARLINK-4311","OBJECT_ID":"2022-077V","EPOCH":"2025-11-28T23:19:25.301568","MEAN_MOTION":15.01257227,"ECCENTRICITY":0.0003904,"INCLINATION":97.602,"RA_OF_ASC_NODE":151.6173,"ARG_OF_PERICENTER":53.9582,"MEAN_ANOMALY":306.2003,"EPHEMERIS_TYPE":0,"CLASSIFICATION_TYPE":"U","NORAD_CAT_ID":53062,"ELEMENT_SET_NO":999,"REV_AT_EPOCH":18580,"BSTAR":1.5264e-5,"MEAN_MOTION_DOT":1.38e-6,"MEAN_MOTION_DDOT":0},{"OBJECT_NAME":"STARLINK-4307","OBJECT_ID":"2022-077W","EPOCH":"2025-11-29T01:52:03.211680","MEAN_MOTION":15.05645991,"ECCENTRICITY":0.0001891,"INCLINATION":97.6016,"RA_OF_ASC_NODE":151.9887,"ARG_OF_PERICENTER":76.4187,"MEAN_ANOMALY":283.725,"EPHEMERIS_TYPE":0,"CLASSIFICATION_TYPE":"U","NORAD_CAT_ID":53063,"ELEMENT_SET_NO":999,"REV_AT_EPOCH":5742,"BSTAR":9.8405e-6,"MEAN_MOTION_DOT":8.1e-7,"MEAN_MOTION_DDOT":0},{"OBJECT_NAME":"STARLINK-4313","OBJECT_ID":"2022-077X","EPOCH":"2025-11-28T11:46:42.528000","MEAN_MOTION":15.05640942,"ECCENTRICITY":0.00018778,"INCLINATION":97.6031,"RA_OF_ASC_NODE":151.4727,"ARG_OF_PERICENTER":86.4419,"MEAN_ANOMALY":273.7023,"EPHEMERIS_TYPE":0,"CLASSIFICATION_TYPE":"U","NORAD_CAT_ID":53064,"ELEMENT_SET_NO":999,"REV_AT_EPOCH":18575,"BSTAR":-3.3730744e-5,"MEAN_MOTION_DOT":-5.47e-6,"MEAN_MOTION_DDOT":0},{"OBJECT_NAME":"STARLINK-4312","OBJECT_ID":"2022-077Y","EPOCH":"2025-11-29T02:20:42.215712","MEAN_MOTION":15.01256909,"ECCENTRICITY":0.0002392,"INCLINATION":97.6013,"RA_OF_ASC_NODE":151.736,"ARG_OF_PERICENTER":27.8237,"MEAN_ANOMALY":332.3115,"EPHEMERIS_TYPE":0,"CLASSIFICATION_TYPE":"U","NORAD_CAT_ID":53065,"ELEMENT_SET_NO":999,"REV_AT_EPOCH":18582,"BSTAR":2.7264e-5,"MEAN_MOTION_DOT":2.92e-6,"MEAN_MOTION_DDOT":0},{"OBJECT_NAME":"STARLINK-4309","OBJECT_ID":"2022-077Z","EPOCH":"2025-11-29T03:54:22.198752","MEAN_MOTION":15.01270477,"ECCENTRICITY":0.0001844,"INCLINATION":97.6004,"RA_OF_ASC_NODE":151.8062,"ARG_OF_PERICENTER":54.4159,"MEAN_ANOMALY":305.7237,"EPHEMERIS_TYPE":0,"CLASSIFICATION_TYPE":"U","NORAD_CAT_ID":53066,"ELEMENT_SET_NO":999,"REV_AT_EPOCH":18583,"BSTAR":0.00034905,"MEAN_MOTION_DOT":4.429e-5,"MEAN_MOTION_DDOT":0},{"OBJECT_NAME":"STARLINK-4325","OBJECT_ID":"2022-077AB","EPOCH":"2025-11-29T00:24:19.984608","MEAN_MOTION":15.05645971,"ECCENTRICITY":0.0001785,"INCLINATION":97.6013,"RA_OF_ASC_NODE":151.9868,"ARG_OF_PERICENTER":84.8612,"MEAN_ANOMALY":275.2819,"EPHEMERIS_TYPE":0,"CLASSIFICATION_TYPE":"U","NORAD_CAT_ID":53068,"ELEMENT_SET_NO":999,"REV_AT_EPOCH":18583,"BSTAR":1.9605e-6,"MEAN_MOTION_DOT":-3.2e-7,"MEAN_MOTION_DDOT":0},{"OBJECT_NAME":"STARLINK-4323","OBJECT_ID":"2022-077AC","EPOCH":"2025-11-29T02:10:01.697088","MEAN_MOTION":15.01267264,"ECCENTRICITY":0.0001076,"INCLINATION":97.6031,"RA_OF_ASC_NODE":151.7234,"ARG_OF_PERICENTER":82.387,"MEAN_ANOMALY":277.7476,"EPHEMERIS_TYPE":0,"CLASSIFICATION_TYPE":"U","NORAD_CAT_ID":53069,"ELEMENT_SET_NO":999,"REV_AT_EPOCH":18582,"BSTAR":5.6112e-5,"MEAN_MOTION_DOT":6.63e-6,"MEAN_MOTION_DDOT":0},{"OBJECT_NAME":"STARLINK-4342","OBJECT_ID":"2022-077AD","EPOCH":"2025-11-28T23:28:31.170720","MEAN_MOTION":15.05647821,"ECCENTRICITY":0.0001882,"INCLINATION":97.6025,"RA_OF_ASC_NODE":152.036,"ARG_OF_PERICENTER":89.9756,"MEAN_ANOMALY":270.1686,"EPHEMERIS_TYPE":0,"CLASSIFICATION_TYPE":"U","NORAD_CAT_ID":53070,"ELEMENT_SET_NO":999,"REV_AT_EPOCH":18583,"BSTAR":3.6287e-5,"MEAN_MOTION_DOT":4.63e-6,"MEAN_MOTION_DDOT":0},{"OBJECT_NAME":"STARLINK-4328","OBJECT_ID":"2022-077AE","EPOCH":"2025-11-28T23:24:31.999104","MEAN_MOTION":15.05644274,"ECCENTRICITY":0.000178,"INCLINATION":97.6031,"RA_OF_ASC_NODE":152.0228,"ARG_OF_PERICENTER":86.1946,"MEAN_ANOMALY":273.9484,"EPHEMERIS_TYPE":0,"CLASSIFICATION_TYPE":"U","NORAD_CAT_ID":53071,"ELEMENT_SET_NO":999,"REV_AT_EPOCH":18583,"BSTAR":4.2389e-5,"MEAN_MOTION_DOT":5.51e-6,"MEAN_MOTION_DDOT":0},{"OBJECT_NAME":"STARLINK-4344","OBJECT_ID":"2022-077AF","EPOCH":"2025-11-29T02:16:00.734880","MEAN_MOTION":15.05652134,"ECCENTRICITY":0.0002399,"INCLINATION":97.6027,"RA_OF_ASC_NODE":152.0311,"ARG_OF_PERICENTER":95.5614,"MEAN_ANOMALY":264.5886,"EPHEMERIS_TYPE":0,"CLASSIFICATION_TYPE":"U","NORAD_CAT_ID":53072,"ELEMENT_SET_NO":999,"REV_AT_EPOCH":18584,"BSTAR":0.00024981,"MEAN_MOTION_DOT":3.546e-5,"MEAN_MOTION_DDOT":0},{"OBJECT_NAME":"STARLINK-4346","OBJECT_ID":"2022-077AG","EPOCH":"2025-11-29T01:11:45.246336","MEAN_MOTION":15.16096852,"ECCENTRICITY":0.0007165,"INCLINATION":97.6375,"RA_OF_ASC_NODE":155.1075,"ARG_OF_PERICENTER":245.293,"MEAN_ANOMALY":114.7557,"EPHEMERIS_TYPE":0,"CLASSIFICATION_TYPE":"U","NORAD_CAT_ID":53073,"ELEMENT_SET_NO":999,"REV_AT_EPOCH":18602,"BSTAR":0.00080945,"MEAN_MOTION_DOT":0.00015551,"MEAN_MOTION_DDOT":0},{"OBJECT_NAME":"STARLINK-4310","OBJECT_ID":"2022-077AH","EPOCH":"2025-11-29T02:11:59.525088","MEAN_MOTION":15.05643958,"ECCENTRICITY":0.0001924,"INCLINATION":97.6019,"RA_OF_ASC_NODE":152.0276,"ARG_OF_PERICENTER":85.0622,"MEAN_ANOMALY":275.0825,"EPHEMERIS_TYPE":0,"CLASSIFICATION_TYPE":"U","NORAD_CAT_ID":53074,"ELEMENT_SET_NO":999,"REV_AT_EPOCH":18584,"BSTAR":1.6086e-5,"MEAN_MOTION_DOT":1.71e-6,"MEAN_MOTION_DDOT":0},{"OBJECT_NAME":"STARLINK-4348","OBJECT_ID":"2022-077AJ","EPOCH":"2025-11-29T00:28:43.979808","MEAN_MOTION":15.01260821,"ECCENTRICITY":0.0001701,"INCLINATION":97.6013,"RA_OF_ASC_NODE":151.6404,"ARG_OF_PERICENTER":88.5533,"MEAN_ANOMALY":271.5886,"EPHEMERIS_TYPE":0,"CLASSIFICATION_TYPE":"U","NORAD_CAT_ID":53075,"ELEMENT_SET_NO":999,"REV_AT_EPOCH":18581,"BSTAR":-1.1664e-5,"MEAN_MOTION_DOT":-2.08e-6,"MEAN_MOTION_DDOT":0},{"OBJECT_NAME":"STARLINK-4347","OBJECT_ID":"2022-077AK","EPOCH":"2025-11-29T00:26:24.728064","MEAN_MOTION":15.01262712,"ECCENTRICITY":0.0001516,"INCLINATION":97.6009,"RA_OF_ASC_NODE":151.6539,"ARG_OF_PERICENTER":87.6914,"MEAN_ANOMALY":272.4484,"EPHEMERIS_TYPE":0,"CLASSIFICATION_TYPE":"U","NORAD_CAT_ID":53076,"ELEMENT_SET_NO":999,"REV_AT_EPOCH":18581,"BSTAR":5.1658e-5,"MEAN_MOTION_DOT":6.05e-6,"MEAN_MOTION_DDOT":0}]
